1 40069U 14037A   22028.45382345 -.00000008  00000-0  15619-4 0  9997
2 40069  98.4431  52.5688 0006125  20.3288 339.8139 14.20695988391989